     2.11           N: GPS NAV DATA     G                   RINEX VERSION / TYPE
LEICA GEO OFFICE 8.4                    27-9-20 23:31       PGM / RUN BY / DATE
    18                                                      LEAP SECONDS
                                                            END OF HEADER
 1 20  9 27 10  0  0.0 3.523705527186D-05-1.136868377216D-12 0.000000000000D+00
    8.700000000000D+01 1.268750000000D+01 4.409469234190D-09 8.069540491723D-01
    7.990747690201D-07 1.008112228010D-02 3.179535269737D-06 5.153699459076D+03
    3.600000000000D+04-9.313225746155D-09 8.216130471613D-01 1.061707735062D-07
    9.814907573154D-01 3.277812500000D+02 8.296557392003D-01-8.352491143171D-09
   -1.535778275386D-11 1.000000000000D+00 2.125000000000D+03 0.000000000000D+00
    2.800000000000D+00 0.000000000000D+00 5.122274160385D-09 8.700000000000D+01
    3.600000000000D+04
 1 20  9 27 12  0  0.0 3.522867336869D-05-1.136868377216D-12 0.000000000000D+00
    9.000000000000D+01 2.446875000000D+01 4.445185108892D-09 1.857293864042D+00
    1.123175024986D-06 1.008064125199D-02 3.004446625710D-06 5.153696016312D+03
    4.320000000000D+04-2.477318048477D-07 8.215523155801D-01-3.352761268616D-08
    9.814917520997D-01 3.333437500000D+02 8.294822356531D-01-8.185341293654D-09
    1.567922458534D-10 1.000000000000D+00 2.125000000000D+03 0.000000000000D+00
    2.800000000000D+00 0.000000000000D+00 5.122274160385D-09 9.000000000000D+01
    4.320000000000D+04
 2 20  9 27  4  0  0.0-5.219248123467D-04-5.115907697473D-12 0.000000000000D+00
    5.600000000000D+01 2.340625000000D+01 4.562332733826D-09-2.116793296412D+00
    1.400709152222D-06 1.985394617077D-02 2.207234501839D-06 5.153784717560D+03
    1.440000000000D+04 3.911554813385D-07 7.429874660788D-01 1.396983861923D-07
    9.604430951329D-01 3.362187500000D+02-1.602253152892D+00-8.028905540414D-09
    1.050043732520D-10 1.000000000000D+00 2.125000000000D+03 0.000000000000D+00
    2.000000000000D+00 0.000000000000D+00-1.769512891769D-08 5.600000000000D+01
    1.440000000000D+04
 2 20  9 27  6  0  0.0-5.219615995884D-04-5.115907697473D-12 0.000000000000D+00
    5.800000000000D+01 2.518750000000D+01 4.933062403012D-09-1.066730694278D+00
    1.572072505951D-06 1.985398679972D-02 2.868473529816D-06 5.153782732010D+03
    2.160000000000D+04-3.054738044739D-07 7.429275113072D-01 3.445893526077D-07
    9.604403638648D-01 3.290625000000D+02-1.602200781888D+00-8.751793068029D-09
    5.893102672516D-11 1.000000000000D+00 2.125000000000D+03 0.000000000000D+00
    2.000000000000D+00 0.000000000000D+00-1.769512891769D-08 5.800000000000D+01
    2.160000000000D+04
 3 20  9 27 11 59 44.0-3.106836229563D-04-1.045918907039D-11 0.000000000000D+00
    8.000000000000D+00-9.734375000000D+01 4.462685776474D-09 6.903956240346D-01
   -5.042180418968D-06 3.237860626541D-03 6.623566150665D-06 5.153742197037D+03
    4.318400000000D+04-3.539025783539D-08 1.861588915451D+00 2.980232238770D-08
    9.666191563678D-01 2.545312500000D+02 8.789376559442D-01-8.093551606692D-09
   -3.164417616830D-10 1.000000000000D+00 2.125000000000D+03 0.000000000000D+00
    2.000000000000D+00 0.000000000000D+00 1.862645149231D-09 8.000000000000D+00
    4.318400000000D+04
 4 20  9 27  4  0  0.0-1.391954720020D-04-4.092726157978D-12 0.000000000000D+00
    3.800000000000D+01-1.250000000000D+00 4.371610629050D-09-8.396269229972D-01
   -7.078051567078D-08 8.338432526216D-04 1.038610935211D-05 5.153629856110D+03
    1.440000000000D+04 4.097819328308D-08 2.941235979702D+00 2.980232238770D-08
    9.605792181973D-01 1.761250000000D+02-2.895510178353D+00-7.847827276919D-09
    4.653765151019D-10 1.000000000000D+00 2.125000000000D+03 0.000000000000D+00
    2.000000000000D+00 0.000000000000D+00-4.190951585770D-09 8.060000000000D+02
    1.440000000000D+04
 5 20  9 27  4  0  0.0-2.203462645411D-05-9.094947017729D-13 0.000000000000D+00
    5.600000000000D+01-9.740625000000D+01 4.569118861042D-09 5.517345357866D-01
   -4.924833774567D-06 6.106082117185D-03 6.651505827904D-06 5.153740501404D+03
    1.440000000000D+04-1.396983861923D-07 1.828238192682D+00 7.078051567078D-08
    9.535297568332D-01 2.486875000000D+02 8.770573190606D-01-8.176054500098D-09
   -1.639354069161D-10 1.000000000000D+00 2.125000000000D+03 0.000000000000D+00
    2.000000000000D+00 0.000000000000D+00-1.117587089539D-08 5.600000000000D+01
    1.440000000000D+04
 5 20  9 27  6  0  0.0-2.204068005085D-05-9.094947017729D-13 0.000000000000D+00
    5.700000000000D+01-1.125312500000D+02 4.584833845911D-09 1.601544436377D+00
   -5.848705768585D-06 6.106619839557D-03 7.122755050659D-06 5.153744348526D+03
    2.160000000000D+04-5.029141902924D-08 1.828179721309D+00-5.774199962616D-08
    9.535280057202D-01 2.433750000000D+02 8.773870798136D-01-8.202841961236D-09
   -2.692969180984D-10 1.000000000000D+00 2.125000000000D+03 0.000000000000D+00
    2.000000000000D+00 0.000000000000D+00-1.117587089539D-08 5.700000000000D+01
    2.160000000000D+04
 5 20  9 27  8  0  0.0-2.204719930887D-05-9.094947017729D-13 0.000000000000D+00
    9.600000000000D+01-1.185000000000D+02 4.618049498362D-09 2.651710914472D+00
   -6.182119250298D-06 6.107296794653D-03 7.145106792450D-06 5.153743415833D+03
    2.880000000000D+04 4.097819328308D-08 1.828120872504D+00-6.332993507385D-08
    9.535264199170D-01 2.378437500000D+02 8.773585894840D-01-8.125338624154D-09
   -2.675111521189D-10 1.000000000000D+00 2.125000000000D+03 0.000000000000D+00
    2.000000000000D+00 0.000000000000D+00-1.117587089539D-08 9.600000000000D+01
    2.880000000000D+04
 6 20  9 27  3 59 44.0-3.290008753538D-04-2.955857780762D-12 0.000000000000D+00
    5.300000000000D+01 1.040625000000D+01 4.286250021579D-09-1.964329428331D+00
    4.768371582031D-07 1.802557846531D-03 2.622604370117D-06 5.153619281769D+03
    1.438400000000D+04 1.490116119385D-08 8.135410543361D-01 1.173466444016D-07
    9.810242854049D-01 3.416250000000D+02-1.139253791590D+00-8.207484469835D-09
    2.928693398907D-11 1.000000000000D+00 2.125000000000D+03 0.000000000000D+00
    2.000000000000D+00 0.000000000000D+00 4.190951585770D-09 5.300000000000D+01
    1.438400000000D+04
 7 20  9 27  4  0  0.0-3.811903297901D-04-8.071765478235D-12 0.000000000000D+00
    7.800000000000D+01 2.500000000000D+01 5.071997044581D-09-3.032357139926D+00
    1.134350895882D-06 1.421101228334D-02 5.599111318588D-06 5.153633674622D+03
    1.440000000000D+04-1.862645149231D-09-2.317597627621D+00-2.421438694000D-07
    9.525735965024D-01 2.694062500000D+02-2.363999475598D+00-8.056764144726D-09
    1.389343640135D-10 1.000000000000D+00 2.125000000000D+03 0.000000000000D+00
    2.000000000000D+00 0.000000000000D+00-1.117587089539D-08 7.800000000000D+01
    1.440000000000D+04
 7 20  9 27  6  0  0.0-3.812485374510D-04-8.071765478235D-12 0.000000000000D+00
    8.300000000000D+01 2.509375000000D+01 5.018780502297D-09-1.982155060257D+00
    1.063570380211D-06 1.421111065429D-02 5.194917321205D-06 5.153633409500D+03
    2.160000000000D+04 1.639127731323D-07-2.317656785102D+00-8.754432201385D-08
    9.525751530472D-01 2.704062500000D+02-2.363991744076D+00-8.109623195196D-09
    3.039412332928D-10 1.000000000000D+00 2.125000000000D+03 0.000000000000D+00
    2.000000000000D+00 0.000000000000D+00-1.117587089539D-08 8.300000000000D+01
    2.160000000000D+04
 8 20  9 27  8  0  0.0-4.942435771227D-05-1.364242052659D-12 0.000000000000D+00
    5.800000000000D+01 6.840625000000D+01 4.285535482040D-09 2.066661177031D+00
    3.745779395103D-06 5.508523783647D-03 8.780509233475D-06 5.153732191086D+03
    2.880000000000D+04 5.587935447693D-09-2.492024508652D-01 1.862645149231D-07
    9.693436481852D-01 2.142187500000D+02-6.506050495689D-02-7.942473345679D-09
    3.142987953231D-11 1.000000000000D+00 2.125000000000D+03 0.000000000000D+00
    2.000000000000D+00 0.000000000000D+00 5.122274160385D-09 5.800000000000D+01
    2.880000000000D+04
 8 20  9 27 10  0  0.0-4.943413659930D-05-1.364242052659D-12 0.000000000000D+00
    5.900000000000D+01 7.293750000000D+01 4.242676876487D-09 3.116834561562D+00
    3.917142748833D-06 5.509571870789D-03 9.205192327499D-06 5.153730348587D+03
    3.600000000000D+04-1.471489667892D-07-2.492597387372D-01 9.313225746155D-09
    9.693449150723D-01 2.061250000000D+02-6.509014806593D-02-7.794967338270D-09
    1.453631937043D-10 1.000000000000D+00 2.125000000000D+03 0.000000000000D+00
    2.000000000000D+00 0.000000000000D+00 5.122274160385D-09 5.900000000000D+01
    3.600000000000D+04
 9 20  9 27  4  0  0.0-2.919496037066D-04-5.456968210638D-12 0.000000000000D+00
    7.500000000000D+01-7.781250000000D+00 4.513045048782D-09 2.518659726459D-01
   -5.587935447693D-07 1.805782550946D-03 1.057982444763D-05 5.153651687622D+03
    1.440000000000D+04 1.303851604462D-08 2.892372848127D+00 2.048909664154D-08
    9.533350951019D-01 1.692187500000D+02 1.759379065863D+00-7.953545377859D-09
    4.325180213982D-10 1.000000000000D+00 2.125000000000D+03 0.000000000000D+00
    2.000000000000D+00 0.000000000000D+00 1.396983861923D-09 7.500000000000D+01
    1.440000000000D+04
10 20  9 27  8  0  0.0-4.651942290366D-04-9.663381206337D-12 0.000000000000D+00
    5.400000000000D+01-1.016250000000D+02 4.220890303941D-09-2.239335716270D+00
   -5.263835191727D-06 5.941219511442D-03 7.078051567078D-06 5.153669885635D+03
    2.880000000000D+04-5.029141902924D-08 1.858714429180D+00-5.215406417847D-08
    9.665469130843D-01 2.467500000000D+02-2.662649525995D+00-7.863541817699D-09
   -1.585780395885D-10 1.000000000000D+00 2.125000000000D+03 0.000000000000D+00
    2.000000000000D+00 0.000000000000D+00 2.328306436539D-09 5.400000000000D+01
    2.880000000000D+04
